OBJECT_NAME,OBJECT_ID,EPOCH,MEAN_MOTION,ECCENTRICITY,INCLINATION,RA_OF_ASC_NODE,ARG_OF_PERICENTER,MEAN_ANOMALY,EPHEMERIS_TYPE,CLASSIFICATION_TYPE,NORAD_CAT_ID,ELEMENT_SET_NO,REV_AT_EPOCH,BSTAR,MEAN_MOTION_DOT,MEAN_MOTION_DDOT
CUTE-1 (CO-55),2003-031E,2026-07-13T10:48:24.575616,14.24350896,.0010803,98.6742,202.6793,107.1223,253.1140,0,U,27844,999,19541,.86848E-4,.157E-5,0
CUBESAT XI-IV (CO-57),2003-031J,2026-07-13T10:50:47.721408,14.23633987,.0010479,98.6773,202.3723,123.9671,236.2505,0,U,27848,999,19511,.76714E-4,.131E-5,0
CUBESAT XI-V,2005-043F,2026-07-13T10:12:39.203136,14.72699773,.0015195,98.3010,350.6030,120.4468,239.8242,0,U,28895,999,10561,.12097E-3,.72E-5,0
CUTE-1.7+APD II (CO-65),2008-021C,2026-07-13T11:56:43.230048,15.09690795,.0007182,97.8288,176.4700,306.3996,53.6570,0,U,32785,999,98916,.19913E-3,.3142E-4,0
CANX-2,2008-021H,2026-07-13T11:19:03.741312,15.05800237,.0008883,97.8656,174.7656,324.7576,35.3062,0,U,32790,999,98876,.13321E-3,.1867E-4,0
SEEDS II (CO-66),2008-021J,2026-07-13T12:03:43.890048,15.33629018,.0002886,97.7522,193.6748,159.9785,200.1570,0,U,32791,999,99132,.32808E-3,.10586E-3,0
SWISSCUBE,2009-051B,2026-07-13T07:17:18.426336,14.62528711,.0007766,98.4011,102.6448,124.1169,236.0769,0,U,35932,999,89297,.1073E-3,.495E-5,0
BEESAT-1,2009-051C,2026-07-12T17:03:25.723296,14.61759519,.00059845,98.3939,101.6234,136.3628,223.8047,0,U,35933,999,89291,.88659106E-4,.393E-5,0
ITUPSAT1,2009-051E,2026-07-11T23:17:18.975264,14.60475983,.0007861,98.4023,100.0372,152.4089,207.7529,0,U,35935,999,89235,.90105677E-4,.388E-5,0
TISAT 1,2010-035E,2026-07-13T08:53:27.763872,15.32686930,.0004358,98.0710,143.2639,123.2911,236.8747,0,U,36799,999,87171,.38992E-3,.12229E-3,0
STRAND-1,2013-009E,2026-07-13T10:37:14.800224,14.37178253,.000932,98.3932,14.0322,145.9311,214.2476,0,U,39090,999,70083,.62098E-4,.142E-5,0
BRITE-AUSTRIA,2013-009F,2026-07-13T11:12:11.477664,14.36552090,.0010667,98.4006,13.2537,155.6045,204.5649,0,U,39091,999,70082,.43851E-4,.86E-6,0
NEE-01 PEGASO,2013-018B,2026-07-13T09:22:48.646848,14.93784279,.0013673,98.1250,339.4132,79.6258,280.6501,0,U,39151,999,71461,.10395E-3,.1042E-4,0
POPACS 2,2013-055E,2026-07-13T04:56:34.842048,14.91964314,.04150914,80.9920,114.4009,110.2648,254.3692,0,U,39269,999,66709,.22645196E-3,.13879E-3,-.912864E-6
POPACS 3,2013-055F,2026-07-13T10:21:38.733984,14.56630802,.0549008,80.9985,200.7186,350.0516,9.0141,0,U,39270,999,64237,.20653E-3,.8706E-4,0
ZACUBE-1 (TSHEPISOSAT),2013-066B,2026-07-13T11:14:30.040800,15.01324440,.0043932,97.8010,156.9353,160.7484,199.5412,0,U,39417,999,68467,.10703E-3,.1341E-4,0
WNISAT-1,2013-066H,2026-07-13T08:34:33.712032,14.58117494,.0163777,97.7231,341.6602,149.0734,212.0239,0,U,39423,999,67054,.12514E-3,.645E-5,0
TRITON-1,2013-066M,2026-07-13T11:55:55.049088,14.81789293,.0090456,97.8228,103.7036,147.5869,213.0945,0,U,39427,999,67798,.68731E-4,.525E-5,0
GOMX-1,2013-066Q,2026-07-13T12:53:24.779904,14.69540744,.0128443,97.6474,33.3373,353.5444,6.4102,0,U,39430,999,67378,.13587E-3,.862E-5,0
CUBEBUG-2 (LO-74),2013-066AA,2026-07-13T09:17:00.180096,14.93959550,.0055889,97.8910,143.4812,301.4913,58.0852,0,U,39440,999,68090,.18138E-3,.1928E-4,0
NEE-02 KRYSAOR,2013-066AB,2026-07-13T09:22:44.076288,14.86734463,.0065594,97.8898,133.4211,345.2283,14.7014,0,U,39441,999,68009,.14151E-3,.1249E-4,0
FUNCUBE-1 (AO-73),2013-066AE,2026-07-13T10:29:12.640704,15.09805136,.0038021,97.8287,166.4387,113.3139,247.2098,0,U,39444,999,68362,.22113E-3,.3565E-4,0
UWE-3,2013-066AG,2026-07-13T09:58:18.420672,14.97191819,.0047494,97.8702,150.6713,230.6805,129.0202,0,U,39446,999,68150,.16195E-3,.1852E-4,0
BRITE-CA1 (TORONTO),2014-033L,2026-07-13T07:58:12.798912,14.72720389,.0078296,97.9769,322.7828,192.2372,167.6936,0,U,40020,999,64606,.89506E-4,.545E-5,0
DUCHIFAT-1,2014-033M,2026-07-12T16:27:26.176896,15.70510170,.00021648,98.0440,256.5455,257.9613,102.1405,0,U,40021,999,65974,.89145614E-3,.110396E-2,0
NANOSATC-BR1,2014-033Q,2026-07-13T08:00:33.437376,15.32288707,.0005328,98.0715,229.0530,101.7320,258.4518,0,U,40024,999,65798,.3342E-3,.10337E-3,0
QB50P1,2014-033R,2026-07-12T12:29:54.904704,15.18640557,.00102199,98.0964,206.4495,132.7489,227.4606,0,U,40025,999,65687,.25721199E-3,.5256E-4,0
QB50P2,2014-033Y,2026-07-13T10:44:25.201824,15.15492857,.0009358,98.0758,192.9699,88.7327,271.4975,0,U,40032,999,65664,.1975E-3,.3667E-4,0
PERSEUS-M2,2014-033AD,2026-07-13T11:47:13.060032,14.95588880,.0010701,97.9968,145.5697,204.7341,155.3367,0,U,40037,999,65471,.14314E-3,.1529E-4,0
PERSEUS-M1,2014-033AF,2026-07-13T09:28:54.761664,14.95711497,.0010803,97.9652,138.9596,202.5697,157.5050,0,U,40039,999,65455,.12405E-3,.1321E-4,0
